{"fetched_at":"2026-03-30T13:17:50Z","count":15418,"tles":[{"name":"STARLINK-33907","line1":"1 63769U 25089U   26087.89295455  .00022020  00000+0  80714-3 0  9993","line2":"2 63769  42.9987 296.8537 0001832 267.9433  92.1209 15.27587162 51845","category":"Starlink"}]}