{
  "norad_id": 63769,
  "name": "STARLINK-33907",
  "history": [
    {
      "epoch": "2026-03-28T21:25:51.273120Z",
      "apogee_km": 484.28461588290065,
      "perigee_km": 481.7706851549501,
      "latitude_deg": 1.445783345024813e-05,
      "longitude_deg": 149.08320532912464,
      "height_km": 482.84965361335475,
      "semi_major_axis_km": 6861.164650518926,
      "eccentricity": 0.0001832,
      "inclination_deg": 42.9987,
      "raan_deg": 296.8537,
      "arg_perigee_deg": 267.9433,
      "mean_anomaly_deg": 92.1209,
      "mean_motion_rev_day": 15.27587162
    }
  ]
}